[{"OBJECT_NAME":"APSTAR-9","OBJECT_ID":"2015-059A","EPOCH":"2026-03-13T07:47:51.644256","MEAN_MOTION":1.00268527,"ECCENTRICITY":0.0001259,"INCLINATION":0.0403,"RA_OF_ASC_NODE":7.9304,"ARG_OF_PERICENTER":247.6726,"MEAN_ANOMALY":174.2589,"EPHEMERIS_TYPE":0,"CLASSIFICATION_TYPE":"U","NORAD_CAT_ID":40982,"ELEMENT_SET_NO":999,"REV_AT_EPOCH":3815,"BSTAR":0,"MEAN_MOTION_DOT":-2.67e-6,"MEAN_MOTION_DDOT":0},{"OBJECT_NAME":"TURKSAT 4B","OBJECT_ID":"2015-060A","EPOCH":"2026-03-15T05:17:08.549376","MEAN_MOTION":1.00268658,"ECCENTRICITY":0.00021201,"INCLINATION":0.0246,"RA_OF_ASC_NODE":163.4277,"ARG_OF_PERICENTER":206.2077,"MEAN_ANOMALY":292.4808,"EPHEMERIS_TYPE":0,"CLASSIFICATION_TYPE":"U","NORAD_CAT_ID":40984,"ELEMENT_SET_NO":999,"REV_AT_EPOCH":3815,"BSTAR":0,"MEAN_MOTION_DOT":0,"MEAN_MOTION_DDOT":0},{"OBJECT_NAME":"ZHONGXING-2C","OBJECT_ID":"2015-063A","EPOCH":"2026-03-15T07:15:04.739616","MEAN_MOTION":1.00269031,"ECCENTRICITY":0.00064147,"INCLINATION":0.032,"RA_OF_ASC_NODE":132.0392,"ARG_OF_PERICENTER":88.7079,"MEAN_ANOMALY":164.3519,"EPHEMERIS_TYPE":0,"CLASSIFICATION_TYPE":"U","NORAD_CAT_ID":41021,"ELEMENT_SET_NO":999,"REV_AT_EPOCH":3803,"BSTAR":0,"MEAN_MOTION_DOT":-3.24e-6,"MEAN_MOTION_DDOT":0},{"OBJECT_NAME":"GSAT-15","OBJECT_ID":"2015-065A","EPOCH":"2026-03-15T02:04:04.564416","MEAN_MOTION":1.00271405,"ECCENTRICITY":0.00015688,"INCLINATION":0.0651,"RA_OF_ASC_NODE":269.1503,"ARG_OF_PERICENTER":126.8549,"MEAN_ANOMALY":261.2054,"EPHEMERIS_TYPE":0,"CLASSIFICATION_TYPE":"U","NORAD_CAT_ID":41028,"ELEMENT_SET_NO":999,"REV_AT_EPOCH":3785,"BSTAR":0,"MEAN_MOTION_DOT":-2.59e-6,"MEAN_MOTION_DDOT":0},{"OBJECT_NAME":"BADR-7 (ARABSAT-6B)","OBJECT_ID":"2015-065B","EPOCH":"2026-03-15T06:52:59.357568","MEAN_MOTION":1.00270795,"ECCENTRICITY":0.00030115,"INCLINATION":0.0319,"RA_OF_ASC_NODE":217.906,"ARG_OF_PERICENTER":37.5837,"MEAN_ANOMALY":46.6301,"EPHEMERIS_TYPE":0,"CLASSIFICATION_TYPE":"U","NORAD_CAT_ID":41029,"ELEMENT_SET_NO":999,"REV_AT_EPOCH":3782,"BSTAR":0,"MEAN_MOTION_DOT":1.44e-6,"MEAN_MOTION_DDOT":0},{"OBJECT_NAME":"LAOSAT 1","OBJECT_ID":"2015-067A","EPOCH":"2026-03-14T19:57:10.272096","MEAN_MOTION":1.00268152,"ECCENTRICITY":0.00014767,"INCLINATION":0.0266,"RA_OF_ASC_NODE":58.3406,"ARG_OF_PERICENTER":266.7453,"MEAN_ANOMALY":275.1066,"EPHEMERIS_TYPE":0,"CLASSIFICATION_TYPE":"U","NORAD_CAT_ID":41034,"ELEMENT_SET_NO":999,"REV_AT_EPOCH":3791,"BSTAR":0,"MEAN_MOTION_DOT":-3.44e-6,"MEAN_MOTION_DDOT":0},{"OBJECT_NAME":"TELSTAR 12V","OBJECT_ID":"2015-068A","EPOCH":"2026-03-15T04:58:32.831616","MEAN_MOTION":1.00271683,"ECCENTRICITY":0.00025579,"INCLINATION":0.0154,"RA_OF_ASC_NODE":133.0816,"ARG_OF_PERICENTER":227.6272,"MEAN_ANOMALY":231.7404,"EPHEMERIS_TYPE":0,"CLASSIFICATION_TYPE":"U","NORAD_CAT_ID":41036,"ELEMENT_SET_NO":999,"REV_AT_EPOCH":3768,"BSTAR":0,"MEAN_MOTION_DOT":-1.2e-6,"MEAN_MOTION_DDOT":0},{"OBJECT_NAME":"ELEKTRO-L 2","OBJECT_ID":"2015-074A","EPOCH":"2026-03-15T06:41:22.970976","MEAN_MOTION":1.00273414,"ECCENTRICITY":0.00028074,"INCLINATION":6.4571,"RA_OF_ASC_NODE":71.6721,"ARG_OF_PERICENTER":249.8242,"MEAN_ANOMALY":297.22,"EPHEMERIS_TYPE":0,"CLASSIFICATION_TYPE":"U","NORAD_CAT_ID":41105,"ELEMENT_SET_NO":999,"REV_AT_EPOCH":3756,"BSTAR":0,"MEAN_MOTION_DOT":-1.14e-6,"MEAN_MOTION_DDOT":0},{"OBJECT_NAME":"COSMOS 2513","OBJECT_ID":"2015-075A","EPOCH":"2026-03-14T21:24:51.719328","MEAN_MOTION":1.00272874,"ECCENTRICITY":0.00022652,"INCLINATION":0.0439,"RA_OF_ASC_NODE":108.2335,"ARG_OF_PERICENTER":260.3394,"MEAN_ANOMALY":205.379,"EPHEMERIS_TYPE":0,"CLASSIFICATION_TYPE":"U","NORAD_CAT_ID":41121,"ELEMENT_SET_NO":999,"REV_AT_EPOCH":3760,"BSTAR":0,"MEAN_MOTION_DOT":-1.39e-6,"MEAN_MOTION_DDOT":0},{"OBJECT_NAME":"EXPRESS-AMU1","OBJECT_ID":"2015-082A","EPOCH":"2026-03-13T13:51:15.746976","MEAN_MOTION":1.00276226,"ECCENTRICITY":0.00027301,"INCLINATION":0.0186,"RA_OF_ASC_NODE":198.571,"ARG_OF_PERICENTER":142.6695,"MEAN_ANOMALY":73.8989,"EPHEMERIS_TYPE":0,"CLASSIFICATION_TYPE":"U","NORAD_CAT_ID":41191,"ELEMENT_SET_NO":999,"REV_AT_EPOCH":3730,"BSTAR":0,"MEAN_MOTION_DOT":1.55e-6,"MEAN_MOTION_DDOT":0},{"OBJECT_NAME":"GAOFEN-4","OBJECT_ID":"2015-083A","EPOCH":"2026-03-13T12:28:23.064096","MEAN_MOTION":1.00269807,"ECCENTRICITY":0.00039265,"INCLINATION":0.4018,"RA_OF_ASC_NODE":83.7567,"ARG_OF_PERICENTER":77.9435,"MEAN_ANOMALY":302.2136,"EPHEMERIS_TYPE":0,"CLASSIFICATION_TYPE":"U","NORAD_CAT_ID":41194,"ELEMENT_SET_NO":999,"REV_AT_EPOCH":3757,"BSTAR":0,"MEAN_MOTION_DOT":-3.34e-6,"MEAN_MOTION_DDOT":0},{"OBJECT_NAME":"BELINTERSAT-1","OBJECT_ID":"2016-001A","EPOCH":"2026-03-15T04:58:38.592768","MEAN_MOTION":1.00274291,"ECCENTRICITY":0.0001436,"INCLINATION":0.0218,"RA_OF_ASC_NODE":272.0424,"ARG_OF_PERICENTER":78.2026,"MEAN_ANOMALY":308.7142,"EPHEMERIS_TYPE":0,"CLASSIFICATION_TYPE":"U","NORAD_CAT_ID":41238,"ELEMENT_SET_NO":999,"REV_AT_EPOCH":3729,"BSTAR":0,"MEAN_MOTION_DOT":1.06e-6,"MEAN_MOTION_DDOT":0},{"OBJECT_NAME":"IRNSS-1E","OBJECT_ID":"2016-003A","EPOCH":"2026-03-14T21:01:18.598944","MEAN_MOTION":1.00270241,"ECCENTRICITY":0.00172977,"INCLINATION":33.0313,"RA_OF_ASC_NODE":61.1066,"ARG_OF_PERICENTER":189.2801,"MEAN_ANOMALY":349.1711,"EPHEMERIS_TYPE":0,"CLASSIFICATION_TYPE":"U","NORAD_CAT_ID":41241,"ELEMENT_SET_NO":999,"REV_AT_EPOCH":3713,"BSTAR":0,"MEAN_MOTION_DOT":-2.77e-6,"MEAN_MOTION_DDOT":0},{"OBJECT_NAME":"EUTELSAT 9B","OBJECT_ID":"2016-005A","EPOCH":"2026-03-15T06:42:38.858688","MEAN_MOTION":1.00273047,"ECCENTRICITY":0.00041319,"INCLINATION":0.0488,"RA_OF_ASC_NODE":69.6718,"ARG_OF_PERICENTER":263.2302,"MEAN_ANOMALY":309.6233,"EPHEMERIS_TYPE":0,"CLASSIFICATION_TYPE":"U","NORAD_CAT_ID":41310,"ELEMENT_SET_NO":999,"REV_AT_EPOCH":3717,"BSTAR":0,"MEAN_MOTION_DOT":6.1e-7,"MEAN_MOTION_DDOT":0},{"OBJECT_NAME":"SES-9","OBJECT_ID":"2016-013A","EPOCH":"2026-03-12T14:21:23.683392","MEAN_MOTION":1.00271324,"ECCENTRICITY":0.0001753,"INCLINATION":0.0283,"RA_OF_ASC_NODE":280.9183,"ARG_OF_PERICENTER":124.7546,"MEAN_ANOMALY":88.1882,"EPHEMERIS_TYPE":0,"CLASSIFICATION_TYPE":"U","NORAD_CAT_ID":41380,"ELEMENT_SET_NO":999,"REV_AT_EPOCH":3647,"BSTAR":0,"MEAN_MOTION_DOT":-3.44e-6,"MEAN_MOTION_DDOT":0},{"OBJECT_NAME":"EUTELSAT 65 WEST A","OBJECT_ID":"2016-014A","EPOCH":"2026-03-15T06:26:54.358080","MEAN_MOTION":1.00273602,"ECCENTRICITY":0.00021959,"INCLINATION":0.0611,"RA_OF_ASC_NODE":19.8078,"ARG_OF_PERICENTER":332.9199,"MEAN_ANOMALY":211.6638,"EPHEMERIS_TYPE":0,"CLASSIFICATION_TYPE":"U","NORAD_CAT_ID":41382,"ELEMENT_SET_NO":999,"REV_AT_EPOCH":3659,"BSTAR":0,"MEAN_MOTION_DOT":-2.77e-6,"MEAN_MOTION_DDOT":0},{"OBJECT_NAME":"IRNSS-1F","OBJECT_ID":"2016-015A","EPOCH":"2026-03-15T05:57:38.683296","MEAN_MOTION":1.00276665,"ECCENTRICITY":0.00188511,"INCLINATION":5.1117,"RA_OF_ASC_NODE":98.9973,"ARG_OF_PERICENTER":189.0156,"MEAN_ANOMALY":6.7323,"EPHEMERIS_TYPE":0,"CLASSIFICATION_TYPE":"U","NORAD_CAT_ID":41384,"ELEMENT_SET_NO":999,"REV_AT_EPOCH":3672,"BSTAR":0,"MEAN_MOTION_DOT":1.59e-6,"MEAN_MOTION_DDOT":0}]
