APSTAR-9                
1 40982U 15059A   26072.32490329 -.00000267  00000+0  00000+0 0  9996
2 40982   0.0403   7.9304 0001259 247.6726 174.2589  1.00268527 38150
TURKSAT 4B              
1 40984U 15060A   26074.22023784  .00000000  00000+0  00000+0 0  9992
2 40984   0.0246 163.4277 0002120 206.2077 292.4808  1.00268658 38154
ZHONGXING-2C            
1 41021U 15063A   26074.30213819 -.00000324  00000+0  00000+0 0  9997
2 41021   0.0320 132.0392 0006414  88.7079 164.3519  1.00269031 38034
GSAT-15                 
1 41028U 15065A   26074.08616394 -.00000259  00000+0  00000+0 0  9993
2 41028   0.0651 269.1503 0001568 126.8549 261.2054  1.00271405 37853
BADR-7 (ARABSAT-6B)     
1 41029U 15065B   26074.28679812  .00000144  00000+0  00000+0 0  9992
2 41029   0.0319 217.9060 0003011  37.5837  46.6301  1.00270795 37825
LAOSAT 1                
1 41034U 15067A   26073.83136889 -.00000344  00000+0  00000+0 0  9995
2 41034   0.0266  58.3406 0001476 266.7453 275.1066  1.00268152 37917
TELSTAR 12V             
1 41036U 15068A   26074.20732444 -.00000120  00000+0  00000+0 0  9991
2 41036   0.0154 133.0816 0002557 227.6272 231.7404  1.00271683 37688
ELEKTRO-L 2             
1 41105U 15074A   26074.27873809 -.00000114  00000+0  00000+0 0  9996
2 41105   6.4571  71.6721 0002807 249.8242 297.2200  1.00273414 37563
COSMOS 2513             
1 41121U 15075A   26073.89226527 -.00000139  00000+0  00000+0 0  9998
2 41121   0.0439 108.2335 0002265 260.3394 205.3790  1.00272874 37604
EXPRESS-AMU1            
1 41191U 15082A   26072.57726559  .00000155  00000+0  00000+0 0  9994
2 41191   0.0186 198.5710 0002730 142.6695  73.8989  1.00276226 37302
GAOFEN-4                
1 41194U 15083A   26072.51971139 -.00000334  00000+0  00000+0 0  9998
2 41194   0.4018  83.7567 0003926  77.9435 302.2136  1.00269807 37577
BELINTERSAT-1           
1 41238U 16001A   26074.20739112  .00000106  00000+0  00000+0 0  9995
2 41238   0.0218 272.0424 0001436  78.2026 308.7142  1.00274291 37293
IRNSS-1E                
1 41241U 16003A   26073.87590971 -.00000277  00000+0  00000+0 0  9991
2 41241  33.0313  61.1066 0017297 189.2801 349.1711  1.00270241 37139
EUTELSAT 9B             
1 41310U 16005A   26074.27961642  .00000061  00000+0  00000+0 0  9992
2 41310   0.0488  69.6718 0004131 263.2302 309.6233  1.00273047 37173
SES-9                   
1 41380U 16013A   26071.59819078 -.00000344  00000+0  00000+0 0  9990
2 41380   0.0283 280.9183 0001753 124.7546  88.1882  1.00271324 36472
EUTELSAT 65 WEST A      
1 41382U 16014A   26074.26868470 -.00000277  00000+0  00000+0 0  9995
2 41382   0.0611  19.8078 0002195 332.9199 211.6638  1.00273602 36595
IRNSS-1F                
1 41384U 16015A   26074.24836439  .00000159  00000+0  00000+0 0  9994
2 41384   5.1117  98.9973 0018851 189.0156   6.7323  1.00276665 36727
